OSCAR 7 (AO-7)          
1 07530U 74089B   19352.78324287 -.00000023  00000-0  13560-3 0  9998
2 07530 101.7733 318.7432 0012309 355.2744 121.8715 12.53641245 63223
UOSAT 2 (UO-11)         
1 14781U 84021B   19352.80697739  .00000057  00000-0  13065-4 0  9996
2 14781  97.5990   8.7391 0009973  80.3567 279.8774 14.83128510925909
LUSAT (LO-19)           
1 20442U 90005G   19353.17395922 -.00000003  00000-0  15157-4 0  9992
2 20442  98.6706 295.0349 0011303 333.9504  26.1110 14.32940702562654
ITAMSAT (IO-26)         
1 22826U 93061D   19352.70081238 -.00000008  00000-0  14969-4 0  9990
2 22826  98.9108 345.6108 0009092 168.3641 191.7752 14.30408154368068
RADIO ROSTO (RS-15)     
1 23439U 94085A   19352.83915099 -.00000034  00000-0  22896-3 0  9999
2 23439  64.8125 179.9502 0145929  77.3467 284.3728 11.27569388 28549
JAS-2 (FO-29)           
1 24278U 96046B   19352.63641590 -.00000041  00000-0 -82444-5 0  9996
2 24278  98.5635 121.4802 0351118 125.7254 237.7088 13.53094959152296
TECHSAT 1B (GO-32)      
1 25397U 98043D   19353.12242123 -.00000001  00000-0  18705-4 0  9995
2 25397  98.7093 291.1937 0000857 168.2809 191.8389 14.23676267113974
ISS (ZARYA)             
1 25544U 98067A   19352.98291280 -.00000451  00000-0  16927-6 0  9991
2 25544  51.6430 165.1707 0007614  51.0107  86.0364 15.50119867203926
PCSAT (NO-44)           
1 26931U 01043C   19353.16445827 -.00000040  00000-0  16471-4 0  9995
2 26931  67.0513 250.2255 0007058 263.9994  96.0302 14.30562002951219
SAUDISAT 1C (SO-50)     
1 27607U 02058C   19353.01054897 -.00000053  00000-0  13398-4 0  9999
2 27607  64.5539 209.1166 0069298 220.3055 139.2900 14.75595900914083
CUTE-1 (CO-55)          
1 27844U 03031E   19352.85367546  .00000039  00000-0  37306-4 0  9991
2 27844  98.6835 358.3243 0009228 216.3969 143.6582 14.22211389854325
CUBESAT XI-IV (CO-57)   
1 27848U 03031J   19352.75743243  .00000025  00000-0  31114-4 0  9992
2 27848  98.6909 358.7646 0008952 229.4035 130.6364 14.21802026854129
MOZHAYETS 4 (RS-22)     
1 27939U 03042A   19353.07244577  .00000030  00000-0  14028-4 0  9998
2 27939  98.0656 125.6100 0012408 202.4332 157.6324 14.66824336867420
CUBESAT XI-V            
1 28895U 05043F   19352.85340696  .00000118  00000-0  31401-4 0  9998
2 28895  97.9837 129.6049 0017828 131.1775 229.0968 14.63721612754048
CUTE-1.7+APD II (CO-65) 
1 32785U 08021C   19353.22408811  .00000223  00000-0  29614-4 0  9996
2 32785  97.5595 344.3816 0013533  20.7116 339.4647 14.88390900630982
DELFI-C3 (DO-64)        
1 32789U 08021G   19352.86381301  .00001205  00000-0  83694-4 0  9992
2 32789  97.4430  36.8100 0011447 211.9076 148.1460 15.07332148634459
SEEDS II (CO-66)        
1 32791U 08021J   19353.06621677  .00000350  00000-0  40782-4 0  9992
2 32791  97.5327 350.3453 0013094 353.8133   6.2922 14.90934597631432
YUBILEINY (RS-30)       
1 32953U 08025A   19353.06730430  .00000037  00000-0  19437-3 0  9998
2 32953  82.5051  30.7208 0020389  90.4727 269.8694 12.43093051525099
KKS-1 (KISEKI)          
1 33499U 09002H   19352.84563189  .00000070  00000-0  18363-4 0  9995
2 33499  98.3334 197.2706 0008901 351.4649   8.6406 14.75488972585807
SWISSCUBE               
1 35932U 09051B   19352.76930874  .00000101  00000-0  33973-4 0  9992
2 35932  98.5996 164.2955 0007005 331.2585  28.8225 14.56340523543384
BEESAT-1                
1 35933U 09051C   19352.76149556  .00000089  00000-0  31128-4 0  9997
2 35933  98.6009 166.1153 0005467 348.0258  12.0808 14.56422777543536
ITUPSAT1                
1 35935U 09051E   19352.71892114  .00000086  00000-0  31002-4 0  9997
2 35935  98.6117 166.2935 0007705 343.0762  17.0176 14.55575573543231
XIWANG-1 (HOPE-1)       
1 36122U 09072B   19353.21083108 -.00000054  00000-0 -31038-4 0  9996
2 36122 100.0808 347.0141 0006932 282.0120  78.0215 13.16352287481024
JUGNU                   
1 37839U 11058B   19352.55799300  .00000302  00000-0  18802-4 0  9991
2 37839  19.9621 305.8446 0018988 182.4126 333.3338 14.12667040423037
SRMSAT                  
1 37841U 11058D   19352.72838388  .00000309  00000-0  24963-4 0  9995
2 37841  19.9735   5.3725 0012041  48.0909 107.9796 14.10645893422478
M-CUBED & EXP-1 PRIME   
1 37855U 11061F   19353.01327417  .00000839  00000-0  49705-4 0  9992
2 37855 101.7258 342.8425 0172113 253.2563 104.9702 15.05886109444360
STRAND-1                
1 39090U 13009E   19352.80583113  .00000019  00000-0  21644-4 0  9994
2 39090  98.4688 195.5366 0010235 103.1564 257.0764 14.35110435356633
SOMP                    
1 39134U 13015E   19352.88407719  .00001250  00000-0  65250-4 0  9994
2 39134  64.8619 146.7537 0038005 273.0663  86.6116 15.20583205368064
BEESAT-3                
1 39135U 13015F   19352.93792328  .00000816  00000-0  49344-4 0  9997
2 39135  64.8647 167.4834 0042998 276.0544  83.5684 15.17795151368059
BEESAT-2                
1 39136U 13015G   19352.78133358  .00000855  00000-0  52378-4 0  9997
2 39136  64.8688 172.3590 0030748 282.3754  77.3931 15.17217929367947
ZACUBE-1 (TSHEPISOSAT)  
1 39417U 13066B   19352.51325554  .00000168  00000-0  27307-4 0  9998
2 39417  97.5612 355.7278 0059569 153.2751 207.1553 14.81193539328102
GOMX-1                  
1 39430U 13066Q   19353.11048038  .00000229  00000-0  50114-4 0  9999
2 39430  97.7713 297.8050 0152012  36.3499 324.7922 14.59325634323358
CUBEBUG-2 (LO-74)       
1 39440U 13066AA  19352.73569756  .00000153  00000-0  28318-4 0  9999
2 39440  97.6144 340.4837 0079425 209.5028 150.1689 14.75931655325775
FUNCUBE-1 (AO-73)       
1 39444U 13066AE  19353.01968047  .00000244  00000-0  36107-4 0  9997
2 39444  97.5574 358.3155 0058881 144.7814 215.7313 14.82029121327084
UWE-3                   
1 39446U 13066AG  19352.96787033  .00000164  00000-0  28425-4 0  9991
2 39446  97.5872 347.8759 0069924 180.8018 179.3093 14.78466005326346
SPROUT                  
1 39770U 14029E   19353.08031392  .00000712  00000-0  84578-4 0  9995
2 39770  97.8905  95.2819 0008599 196.8467 163.2479 14.87545123302098
UNISAT-6                
1 40012U 14033C   19352.89311903  .00000140  00000-0  28277-4 0  9997
2 40012  97.7309 211.3546 0057248 225.7943 133.8557 14.74045716295674
DUCHIFAT-1              
1 40021U 14033M   19353.06209729  .00000351  00000-0  41552-4 0  9994
2 40021  97.9327 278.3181 0013156 159.5848 200.5898 14.90765236298860
QB50P1                  
1 40025U 14033R   19353.02471088  .00000189  00000-0  26088-4 0  9999
2 40025  97.9102 272.4204 0012514 169.9789 190.1680 14.89039414298607
NUDT-PHONESAT           
1 40900U 15049B   19353.13754916  .00001720  00000-0  75194-4 0  9999
2 40900  97.4349   0.7188 0010995 260.8217 167.3749 15.23404945235582
ZDPS 2A                 
1 40901U 15049C   19353.07940612  .00000728  00000-0  39106-4 0  9993
2 40901  97.4607 356.2926 0011856 287.8817 157.3111 15.17983535235055
ZDPS 2B                 
1 40902U 15049D   19353.05611828  .00001093  00000-0  57224-4 0  9993
2 40902  97.4577 353.6244 0011844 284.8060 159.4105 15.17892010235020
XW-2A                   
1 40903U 15049E   19353.08743978  .00001548  00000-0  37718-4 0  9990
2 40903  97.3147  36.6995 0012793 193.9689 249.9593 15.42432070238512
KAITUO 1A               
1 40904U 15049F   19353.09356310  .00000223  00000-0  15264-4 0  9993
2 40904  97.4716 352.0300 0013198 295.8961 137.1322 15.15537610234774
2015-049G               
1 40905U 15049G   19353.04372264  .00000350  00000-0  22619-4 0  9998
2 40905  97.4776 349.3464 0014087 290.8395 153.3173 15.14417880234628
XW-2C                   
1 40906U 15049H   19353.05599863  .00000649  00000-0  37382-4 0  9990
2 40906  97.4721 352.1652 0013204 285.6424 146.9416 15.15864570234772
XW-2D                   
1 40907U 15049J   19353.07564508  .00000527  00000-0  30801-4 0  9995
2 40907  97.4706 351.8702 0012554 282.5868 147.8395 15.16069383234791
LILACSAT-2              
1 40908U 15049K   19353.07980774  .00000192  00000-0  14206-4 0  9992
2 40908  97.4845 350.4783 0014466 292.3030 138.4740 15.13914604234550
XW-2F                   
1 40910U 15049M   19353.05103374  .00000946  00000-0  50362-4 0  9996
2 40910  97.4651 354.1361 0013051 273.4628 122.2649 15.17600358234824
XW-2B                   
1 40911U 15049N   19353.05127439  .00000654  00000-0  37492-4 0  9990
2 40911  97.4718 352.5266 0012543 283.8579 148.8260 15.15999204234686
KAITUO 1B               
1 40912U 15049P   19353.07176411  .00001006  00000-0  49926-4 0  9994
2 40912  97.4489 358.0829 0013249 250.9726 182.8644 15.19950086235168
TIANWANG 1C (TW-1C)     
1 40926U 15051B   19353.19994748  .00011196  00000-0  14100-3 0  9992
2 40926  97.1122  39.3424 0008619  55.8341 345.4440 15.59752408238722
TIANWANG 1A (TW-1A)     
1 40928U 15051D   19353.16861932  .00002147  00000-0  52742-4 0  9990
2 40928  97.1279  20.3280 0012296 121.1376 313.7769 15.41679765237432
LAPAN-A2                
1 40931U 15052B   19352.99822069  .00000535  00000-0 -14603-4 0  9997
2 40931   5.9937 189.3915 0013188 231.8732 128.1161 14.76621044228394
E-ST@R-II               
1 41459U 16025D   19353.02889073  .00001166  00000-0  62636-4 0  9996
2 41459  98.0990  88.7670 0167673 102.1126 259.8965 15.05918525200130
AAUSAT 4                
1 41460U 16025E   19352.96517658  .00001573  00000-0  80969-4 0  9998
2 41460  98.0966  90.4372 0157185  93.0638 268.8577 15.08003141200284
NUSAT-1 (FRESCO)        
1 41557U 16033B   19353.15404160  .00001007  00000-0  39989-4 0  9997
2 41557  97.4123  79.5682 0013998  16.3851 343.7838 15.27605813198092
BEESAT-4                
1 41619U 16040W   19352.91755140  .00001221  00000-0  53935-4 0  9999
2 41619  97.3459  51.5341 0012908  98.6138 261.6562 15.23547329181755
CAS-2T & KS-1Q          
1 41847U 16066G   19352.88558446  .00000045  00000-0  16730-4 0  9991
2 41847  98.6824  36.3068 0366627  49.8922 313.3794 14.38028124163321
NAYIF-1 (EO-88)         
1 42017U 17008BX  19352.61273052  .00001332  00000-0  54627-4 0  9993
2 42017  97.3837  57.6554 0004837 235.4025 124.6758 15.25985572157812
MAX VALIER SAT          
1 42778U 17036P   19352.87454338  .00000758  00000-0  35862-4 0  9995
2 42778  97.3318  46.2876 0010833 305.0762  54.9458 15.22305951138103
RADFXSAT (FOX-1B)       
1 43017U 17073E   19352.71652620  .00000537  00000-0  47941-4 0  9996
2 43017  97.7257 266.9305 0256244 282.4883  74.7772 14.78747924112307
FOX-1D (AO-92)          
1 43137U 18004AC  19352.86553523  .00000882  00000-0  39634-4 0  9995
2 43137  97.4685  60.0797 0008571 343.7009  16.3951 15.23775436107393
ES'HAIL 2               
1 43700U 18090A   19352.87421535  .00000146  00000-0  00000-0 0  9998
2 43700   0.0198 335.8245 0001752 322.9284 128.9706  1.00268070  3885
FOX-1CLIFF (AO-95)      
1 43770U 18099N   19353.11687723 -.00000095  00000-0 -34021-5 0  9995
2 43770  97.7280  62.4675 0016005  83.4780 276.8262 14.94874006 56825
ITASAT 1                
1 43786U 18099AE  19352.82131465  .00000559  00000-0  55959-4 0  9991
2 43786  97.7296  62.4648 0016748  78.9661 281.3443 14.95230915 56794
JY1SAT (JO-97)          
1 43803U 18099AX  19353.19038664  .00000069  00000-0  11425-4 0  9995
2 43803  97.7252  62.6949 0016507  78.2913 282.0159 14.95381584 56845
PSAT2 (NO-104)          
1 44354U 19036R   19352.70083637  .00015991  00000-0  24353-3 0  9998
2 44354  28.5306 131.2296 0377594 174.7700 185.6988 15.00055798 26475
BRICSAT2 (NO-103)       
1 44355U 19036S   19352.71457006  .00029598  00000-0  44653-3 0  9998
2 44355  28.5313 129.4034 0367936 177.7558 182.4768 15.02415361 26497
JAISAT-1                
1 44419U 19038F   19352.83610096  .00000815  00000-0  50364-4 0  9992
2 44419  97.5143 311.8911 0022872  39.9000 320.3907 15.12477770 25146
